NORAD_CAT_ID,OBJECT_NAME,OBJECT_TYPE,EPOCH,MEAN_MOTION,ECCENTRICITY,INCLINATION,RA_OF_ASC_NODE,ARG_OF_PERICENTER,MEAN_ANOMALY,BSTAR,MEAN_MOTION_DOT,MEAN_MOTION_DDOT,TLE_LINE0,TLE_LINE1,TLE_LINE2,SEMIMAJOR_AXIS,PERIOD,APOGEE,PERIGEE,DECAYED
55747.0,STARLINK-5539,PAYLOAD,2023-10-26 07:32:37,14.98329955,0.0002851,69.999,266.4384,268.2259,91.8574,2.3722e-05,1.9e-06,0.0,0 STARLINK-5539,1 55747U 23028G   23299.31432378  .00000190  00000-0  23722-4 0  9999,2 55747  69.9990 266.4384 0002851 268.2259  91.8574 14.98329955 36418,6950.193,96.107,574.04,570.077,0.0
55747.0,STARLINK-5539,PAYLOAD,2023-10-26 21:57:49,14.98332914,0.0002161,69.9997,264.9223,272.6435,87.4477,0.00014545,1.643e-05,0.0,0 STARLINK-5539,1 55747U 23028G   23299.91515815  .00001643  00000-0  14545-3 0  9999,2 55747  69.9997 264.9223 0002161 272.6435  87.4477 14.98332914 36501,6950.184,96.107,573.551,570.547,0.0
55747.0,STARLINK-5539,PAYLOAD,2023-10-27 04:22:20,14.98345701,0.0002578,69.9997,264.2496,264.9483,95.1382,0.0002668,3.093e-05,0.0,0 STARLINK-5539,1 55747U 23028G   23300.18218636  .00003093  00000-0  26680-3 0  9996,2 55747  69.9997 264.2496 0002578 264.9483  95.1382 14.98345701 36548,6950.144,96.106,573.801,570.218,0.0
55747.0,STARLINK-5539,PAYLOAD,2023-10-27 07:34:37,14.98340479,0.0002925,69.9991,263.9132,271.401,88.6814,0.00016602,1.889e-05,0.0,0 STARLINK-5539,1 55747U 23028G   23300.31571132  .00001889  00000-0  16602-3 0  9998,2 55747  69.9991 263.9132 0002925 271.4010  88.6814 14.98340479 36566,6950.16,96.106,574.058,569.993,0.0
55747.0,STARLINK-5539,PAYLOAD,2023-10-27 20:23:42,14.98324017,0.0002282,70.0004,262.5672,270.9561,89.1337,0.00015627,1.772e-05,0.0,0 STARLINK-5539,1 55747U 23028G   23300.84979982  .00001772  00000-0  15627-3 0  9998,2 55747  70.0004 262.5672 0002282 270.9561  89.1337 14.98324017 36644,6950.211,96.107,573.662,570.49,0.0
55747.0,STARLINK-5539,PAYLOAD,2023-10-27 21:59:51,14.98326189,0.0002786,69.9994,262.3974,268.1497,91.9343,-1.135e-05,-2.28e-06,0.0,0 STARLINK-5539,1 55747U 23028G   23300.91656333 -.00000228  00000-0 -11350-4 0  9995,2 55747  69.9994 262.3974 0002786 268.1497  91.9343 14.98326189 36659,6950.205,96.107,574.006,570.133,0.0
55747.0,STARLINK-5539,PAYLOAD,2023-10-28 07:36:39,14.98324014,0.0002884,69.9992,261.3876,268.6984,91.3845,-3.8432e-05,-5.51e-06,0.0,0 STARLINK-5539,1 55747U 23028G   23301.31712667 -.00000551  00000-0 -38432-4 0  9992,2 55747  69.9992 261.3876 0002884 268.6984  91.3845 14.98324014 36715,6950.211,96.107,574.081,570.072,0.0
55747.0,STARLINK-5539,PAYLOAD,2023-10-28 22:01:51,14.9833037,0.0002657,69.999,259.8723,255.8597,104.2267,5.4512e-06,-2.8e-07,0.0,0 STARLINK-5539,1 55747U 23028G   23301.91796153 -.00000028  00000-0  54512-5 0  9996,2 55747  69.9990 259.8723 0002657 255.8597 104.2267 14.98330370 36806,6950.192,96.107,573.903,570.21,0.0
55747.0,STARLINK-5539,PAYLOAD,2023-10-29 04:26:23,14.98340773,0.0002777,69.9992,259.2004,270.4535,89.6306,6.8594e-05,7.26e-06,0.0,0 STARLINK-5539,1 55747U 23028G   23302.18499391  .00000726  00000-0  68594-4 0  9998,2 55747  69.9992 259.2004 0002777 270.4535  89.6306 14.98340773 36844,6950.16,96.106,573.955,570.095,0.0
55747.0,STARLINK-5539,PAYLOAD,2023-10-29 07:38:38,14.98365468,0.0002359,69.9993,258.8637,267.3578,92.7311,-0.0003041,-3.723e-05,0.0,0 STARLINK-5539,1 55747U 23028G   23302.31850537 -.00003723  00000-0 -30410-3 0  9993,2 55747  69.9993 258.8637 0002359 267.3578  92.7311 14.98365468 36861,6950.083,96.105,573.588,570.309,0.0
55747.0,STARLINK-5539,PAYLOAD,2023-10-29 22:03:53,14.983214,0.000256,70.0022,257.3513,270.4467,89.6399,0.00012575,1.407e-05,0.0,0 STARLINK-5539,1 55747U 23028G   23302.91936391  .00001407  00000-0  12575-3 0  9999,2 55747  70.0022 257.3513 0002560 270.4467  89.6399 14.98321400 36959,6950.219,96.108,573.864,570.305,0.0
55747.0,STARLINK-5539,PAYLOAD,2023-10-30 04:28:25,14.98315828,0.0002358,70.0006,256.6765,244.6357,115.4558,3.0893e-05,2.76e-06,0.0,0 STARLINK-5539,1 55747U 23028G   23303.18641091  .00000276  00000-0  30893-4 0  9996,2 55747  70.0006 256.6765 0002358 244.6357 115.4558 14.98315828 36994,6950.237,96.108,573.741,570.463,0.0
55747.0,STARLINK-5539,PAYLOAD,2023-10-30 14:05:14,14.98323513,0.0002314,70.0006,255.665,278.7281,81.3616,4.1732e-05,4.05e-06,0.0,0 STARLINK-5539,1 55747U 23028G   23303.58697024  .00000405  00000-0  41732-4 0  9995,2 55747  70.0006 255.6650 0002314 278.7281  81.3616 14.98323513 37056,6950.213,96.107,573.686,570.47,0.0
55747.0,STARLINK-5539,PAYLOAD,2023-10-30 22:05:54,14.98329536,0.0002809,70.0003,254.824,267.178,92.9057,2.6006e-05,2.17e-06,0.0,0 STARLINK-5539,1 55747U 23028G   23303.92076453  .00000217  00000-0  26006-4 0  9998,2 55747  70.0003 254.8240 0002809 267.1780  92.9057 14.98329536 37108,6950.194,96.107,574.012,570.107,0.0
55747.0,STARLINK-5539,PAYLOAD,2023-10-31 04:30:25,14.98320899,0.0003039,70.0001,254.1495,261.8531,98.2284,0.00039294,4.597e-05,0.0,0 STARLINK-5539,1 55747U 23028G   23304.18780035  .00004597  00000-0  39294-3 0  9992,2 55747  70.0001 254.1495 0003039 261.8531  98.2284 14.98320899 37140,6950.221,96.108,574.198,569.974,0.0
55747.0,STARLINK-5539,PAYLOAD,2023-10-31 14:07:13,14.98367825,0.0002831,70.0005,253.1397,277.6094,82.4744,-0.00058799,-7.108e-05,0.0,0 STARLINK-5539,1 55747U 23028G   23304.58835129 -.00007108  00000-0 -58799-3 0  9995,2 55747  70.0005 253.1397 0002831 277.6094  82.4744 14.98367825 37205,6950.076,96.105,573.908,569.973,0.0
55747.0,STARLINK-5539,PAYLOAD,2023-10-31 22:07:55,14.98321901,0.0002509,70.0004,252.2979,257.1381,102.9498,0.00017372,1.98e-05,0.0,0 STARLINK-5539,1 55747U 23028G   23304.92216439  .00001980  00000-0  17372-3 0  9992,2 55747  70.0004 252.2979 0002509 257.1381 102.9498 14.98321901 37258,6950.218,96.108,573.827,570.339,0.0
55747.0,STARLINK-5539,PAYLOAD,2023-11-01 04:32:23,14.9837064,0.0002588,70.0002,251.6249,243.5199,116.5695,0.00068239,8.067e-05,0.0,0 STARLINK-5539,1 55747U 23028G   23305.18916421  .00008067  00000-0  68239-3 0  9990,2 55747  70.0002 251.6249 0002588 243.5199 116.5695 14.98370640 37290,6950.067,96.104,573.731,570.134,0.0
55747.0,STARLINK-5539,PAYLOAD,2023-11-01 06:08:35,14.98327431,0.0002629,69.9998,251.4583,260.1569,99.9294,0.00014449,1.631e-05,0.0,0 STARLINK-5539,1 55747U 23028G   23305.25596289  .00001631  00000-0  14449-3 0  9998,2 55747  69.9998 251.4583 0002629 260.1569  99.9294 14.98327431 37303,6950.201,96.107,573.893,570.239,0.0
55747.0,STARLINK-5539,PAYLOAD,2023-11-01 14:09:16,14.98288906,0.0002717,69.9994,250.6147,283.5381,76.5475,0.00079377,9.381e-05,0.0,0 STARLINK-5539,1 55747U 23028G   23305.58977646  .00009381  00000-0  79377-3 0  9995,2 55747  69.9994 250.6147 0002717 283.5381  76.5475 14.98288906 37355,6950.32,96.11,574.073,570.297,0.0
55747.0,STARLINK-5539,PAYLOAD,2023-11-01 22:09:55,14.98331346,0.0002912,70.0001,249.7731,267.6083,92.4743,6.3827e-05,6.69e-06,0.0,0 STARLINK-5539,1 55747U 23028G   23305.92356114  .00000669  00000-0  63827-4 0  9998,2 55747  70.0001 249.7731 0002912 267.6083  92.4743 14.98331346 37402,6950.189,96.107,574.078,570.03,0.0
55747.0,STARLINK-5539,PAYLOAD,2023-11-02 06:10:35,14.98335489,0.000291,69.9995,248.9326,267.7095,92.3731,0.00013693,1.541e-05,0.0,0 STARLINK-5539,1 55747U 23028G   23306.25735620  .00001541  00000-0  13693-3 0  9993,2 55747  69.9995 248.9326 0002910 267.7095  92.3731 14.98335489 37457,6950.176,96.107,574.063,570.018,0.0
55747.0,STARLINK-5539,PAYLOAD,2023-11-02 14:11:16,14.98335225,0.0002589,70.0012,248.0897,272.2466,87.8397,-9.6844e-06,-2.08e-06,0.0,0 STARLINK-5539,1 55747U 23028G   23306.59115958 -.00000208  00000-0 -96844-5 0  9998,2 55747  70.0012 248.0897 0002589 272.2466  87.8397 14.98335225 37500,6950.177,96.107,573.841,570.242,0.0
55747.0,STARLINK-5539,PAYLOAD,2023-11-02 20:35:48,14.98329198,0.0002809,69.9999,247.4165,268.0756,92.0081,4.2063e-05,4.09e-06,0.0,0 STARLINK-5539,1 55747U 23028G   23306.85820088  .00000409  00000-0  42063-4 0  9998,2 55747  69.9999 247.4165 0002809 268.0756  92.0081 14.98329198 37546,6950.195,96.107,574.013,570.108,0.0
55747.0,STARLINK-5539,PAYLOAD,2023-11-02 22:11:56,14.98329109,0.0002779,69.9997,247.2483,268.259,91.8251,2.3483e-05,1.87e-06,0.0,0 STARLINK-5539,1 55747U 23028G   23306.92496147  .00000187  00000-0  23483-4 0  9999,2 55747  69.9997 247.2483 0002779 268.2590  91.8251 14.98329109 37558,6950.196,96.107,573.992,570.129,0.0
55747.0,STARLINK-5539,PAYLOAD,2023-11-03 06:12:36,14.98333593,0.0002742,69.9998,246.4068,267.486,92.5985,3.8813e-05,3.7e-06,0.0,0 STARLINK-5539,1 55747U 23028G   23307.25875801  .00000370  00000-0  38813-4 0  9991,2 55747  69.9998 246.4068 0002742 267.4860  92.5985 14.98333593 37600,6950.182,96.107,573.953,570.141,0.0
55747.0,STARLINK-5539,PAYLOAD,2023-11-03 22:13:57,14.9832989,0.0002617,70.0007,244.7241,266.6632,93.4228,5.7507e-06,-2.4e-07,0.0,0 STARLINK-5539,1 55747U 23028G   23307.92636079 -.00000024  00000-0  57507-5 0  9996,2 55747  70.0007 244.7241 0002617 266.6632  93.4228 14.98329890 37703,6950.193,96.107,573.877,570.239,0.0
55747.0,STARLINK-5539,PAYLOAD,2023-11-04 03:02:21,14.98335216,0.0002717,70.0001,244.2202,264.2802,95.8047,1.429e-05,7.8e-07,0.0,0 STARLINK-5539,1 55747U 23028G   23308.12663701  .00000078  00000-0  14290-4 0  9990,2 55747  70.0001 244.2202 0002717 264.2802  95.8047 14.98335216 37730,6950.177,96.107,573.93,570.153,0.0
55747.0,STARLINK-5539,PAYLOAD,2023-11-04 12:39:09,14.98362333,0.0002572,70.0023,243.2105,270.7332,89.3532,-0.00063227,-7.635e-05,0.0,0 STARLINK-5539,1 55747U 23028G   23308.52719303 -.00007635  00000-0 -63227-3 0  9995,2 55747  70.0023 243.2105 0002572 270.7332  89.3532 14.98362333 37797,6950.093,96.105,573.745,570.17,0.0
55747.0,STARLINK-5539,PAYLOAD,2023-11-04 20:39:50,14.98326273,0.0002904,70.0002,242.3677,271.3329,88.7498,2.2761e-05,1.79e-06,0.0,0 STARLINK-5539,1 55747U 23028G   23308.86100166  .00000179  00000-0  22761-4 0  9996,2 55747  70.0002 242.3677 0002904 271.3329  88.7498 14.98326273 37843,6950.204,96.107,574.088,570.051,0.0
